CSS (TIANHE)            
1 48274U 21035A   23202.42399126  .00028489  00000+0  34345-3 0  9993
2 48274  41.4749 307.9095 0008874 325.6294  34.3970 15.60100277127181
